{
  "links" : {
    "next" : "https://api.nasa.gov/neo/rest/v1/feed?start_date=2012-04-23&end_date=2012-04-23&detailed=true&api_key=t0TVs3DtDT2H8Oy2Zy8m2eVrNsAVKAexjcZXUckd",
    "prev" : "https://api.nasa.gov/neo/rest/v1/feed?start_date=2012-04-21&end_date=2012-04-21&detailed=true&api_key=t0TVs3DtDT2H8Oy2Zy8m2eVrNsAVKAexjcZXUckd",
    "self" : "https://api.nasa.gov/neo/rest/v1/feed?start_date=2012-04-22&end_date=2012-04-22&detailed=true&api_key=t0TVs3DtDT2H8Oy2Zy8m2eVrNsAVKAexjcZXUckd"
  },
  "element_count" : 8,
  "near_earth_objects" : {
    "2012-04-22" : [ {
      "links" : {
        "self" : "https://api.nasa.gov/neo/rest/v1/neo/3748472?api_key=t0TVs3DtDT2H8Oy2Zy8m2eVrNsAVKAexjcZXUckd"
      },
      "neo_reference_id" : "3748472",
      "name" : "(2016 FU12)",
      "nasa_jpl_url" : "http://ssd.jpl.nasa.gov/sbdb.cgi?sstr=3748472",
      "absolute_magnitude_h" : 26.9,
      "estimated_diameter" : {
        "kilometers" : {
          "estimated_diameter_min" : 0.0110803882,
          "estimated_diameter_max" : 0.0247765013
        },
        "meters" : {
          "estimated_diameter_min" : 11.0803882126,
          "estimated_diameter_max" : 24.7765012606
        },
        "miles" : {
          "estimated_diameter_min" : 0.0068850319,
          "estimated_diameter_max" : 0.0153953994
        },
        "feet" : {
          "estimated_diameter_min" : 36.3529808636,
          "estimated_diameter_max" : 81.2877363957
        }
      },
      "is_potentially_hazardous_asteroid" : false,
      "close_approach_data" : [ {
        "close_approach_date" : "2012-04-22",
        "epoch_date_close_approach" : 1335078000000,
        "relative_velocity" : {
          "kilometers_per_second" : "4.0768908563",
          "kilometers_per_hour" : "14676.8070827064",
          "miles_per_hour" : "9119.5971564739"
        },
        "miss_distance" : {
          "astronomical" : "0.1419583089",
          "lunar" : "55.2217826843",
          "kilometers" : "21236662",
          "miles" : "13195850"
        },
        "orbiting_body" : "Earth"
      } ],
      "orbital_data" : {
        "orbit_id" : "4",
        "orbit_determination_date" : "2017-04-06 08:27:11",
        "orbit_uncertainty" : "7",
        "minimum_orbit_intersection" : ".0336951",
        "jupiter_tisserand_invariant" : "6.057",
        "epoch_osculation" : "2458000.5",
        "eccentricity" : ".1659032170444373",
        "semi_major_axis" : "1.002189261805455",
        "inclination" : "2.07974763007612",
        "ascending_node_longitude" : "227.003991790028",
        "orbital_period" : "366.4570190374504",
        "perihelion_distance" : ".8359228391845402",
        "perihelion_argument" : "194.9107288518438",
        "aphelion_distance" : "1.16845568442637",
        "perihelion_time" : "2458097.775755561877",
        "mean_anomaly" : "264.4382555578862",
        "mean_motion" : ".9823798734858167",
        "equinox" : "J2000"
      }
    }, {
      "links" : {
        "self" : "https://api.nasa.gov/neo/rest/v1/neo/3774008?api_key=t0TVs3DtDT2H8Oy2Zy8m2eVrNsAVKAexjcZXUckd"
      },
      "neo_reference_id" : "3774008",
      "name" : "(2017 HY)",
      "nasa_jpl_url" : "http://ssd.jpl.nasa.gov/sbdb.cgi?sstr=3774008",
      "absolute_magnitude_h" : 27.476,
      "estimated_diameter" : {
        "kilometers" : {
          "estimated_diameter_min" : 0.0084987485,
          "estimated_diameter_max" : 0.0190037793
        },
        "meters" : {
          "estimated_diameter_min" : 8.4987484819,
          "estimated_diameter_max" : 19.0037793292
        },
        "miles" : {
          "estimated_diameter_min" : 0.0052808758,
          "estimated_diameter_max" : 0.0118083974
        },
        "feet" : {
          "estimated_diameter_min" : 27.8830339694,
          "estimated_diameter_max" : 62.3483593746
        }
      },
      "is_potentially_hazardous_asteroid" : false,
      "close_approach_data" : [ {
        "close_approach_date" : "2012-04-22",
        "epoch_date_close_approach" : 1335078000000,
        "relative_velocity" : {
          "kilometers_per_second" : "7.7796493413",
          "kilometers_per_hour" : "28006.7376288064",
          "miles_per_hour" : "17402.2976116325"
        },
        "miss_distance" : {
          "astronomical" : "0.0205082418",
          "lunar" : "7.9777054787",
          "kilometers" : "3067989.25",
          "miles" : "1906360.125"
        },
        "orbiting_body" : "Earth"
      } ],
      "orbital_data" : {
        "orbit_id" : "4",
        "orbit_determination_date" : "2017-04-24 06:23:18",
        "orbit_uncertainty" : "6",
        "minimum_orbit_intersection" : ".00216071",
        "jupiter_tisserand_invariant" : "4.709",
        "epoch_osculation" : "2458000.5",
        "eccentricity" : ".3231131645594044",
        "semi_major_axis" : "1.395094403614448",
        "inclination" : "1.628243351193739",
        "ascending_node_longitude" : "31.63817085729961",
        "orbital_period" : "601.871559226798",
        "perihelion_distance" : ".9443210360034685",
        "perihelion_argument" : "225.6267712801546",
        "aphelion_distance" : "1.845867771225427",
        "perihelion_time" : "2457904.065816544093",
        "mean_anomaly" : "57.68058900926523",
        "mean_motion" : ".5981342605097981",
        "equinox" : "J2000"
      }
    } ]
  }
}